{
    "links": {
        "self": "http://www.neowsapp.com/rest/v1/neo/3991732?api_key=iIulBulltgU6a56xZRHN4H3l9WmuAYTsLGpBGhQ2"
    },
    "id": "3991732",
    "neo_reference_id": "3991732",
    "name": "(2020 DF2)",
    "designation": "2020 DF2",
    "nasa_jpl_url": "http://ssd.jpl.nasa.gov/sbdb.cgi?sstr=3991732",
    "absolute_magnitude_h": 26.207,
    "estimated_diameter": {
        "kilometers": {
            "estimated_diameter_min": 0.015245967,
            "estimated_diameter_max": 0.0340910187
        },
        "meters": {
            "estimated_diameter_min": 15.2459670423,
            "estimated_diameter_max": 34.0910186893
        },
        "miles": {
            "estimated_diameter_min": 0.0094734018,
            "estimated_diameter_max": 0.0211831704
        },
        "feet": {
            "estimated_diameter_min": 50.0195785111,
            "estimated_diameter_max": 111.8471777566
        }
    },
    "is_potentially_hazardous_asteroid": false,
    "close_approach_data": [
        {
            "close_approach_date": "1950-09-17",
            "close_approach_date_full": "1950-Sep-17 09:56",
            "epoch_date_close_approach": -608738640000,
            "relative_velocity": {
                "kilometers_per_second": "17.3976674079",
                "kilometers_per_hour": "62631.6026683129",
                "miles_per_hour": "38916.8422246525"
            },
            "miss_distance": {
                "astronomical": "0.110088354",
                "lunar": "42.824369706",
                "kilometers": "16468983.27020598",
                "miles": "10233351.677283324"
            },
            "orbiting_body": "Earth"
        },
        {
            "close_approach_date": "2017-09-14",
            "close_approach_date_full": "2017-Sep-14 19:38",
            "epoch_date_close_approach": 1505417880000,
            "relative_velocity": {
                "kilometers_per_second": "19.0428413313",
                "kilometers_per_hour": "68554.2287925565",
                "miles_per_hour": "42596.9317739082"
            },
            "miss_distance": {
                "astronomical": "0.1582211098",
                "lunar": "61.5480117122",
                "kilometers": "23669541.015116126",
                "miles": "14707570.7876734988"
            },
            "orbiting_body": "Earth"
        },
        {
            "close_approach_date": "2020-02-18",
            "close_approach_date_full": "2020-Feb-18 15:26",
            "epoch_date_close_approach": 1582039560000,
            "relative_velocity": {
                "kilometers_per_second": "15.4709236945",
                "kilometers_per_hour": "55695.3253000758",
                "miles_per_hour": "34606.9092121499"
            },
            "miss_distance": {
                "astronomical": "0.0104637519",
                "lunar": "4.0703994891",
                "kilometers": "1565354.996448453",
                "miles": "972666.4916485314"
            },
            "orbiting_body": "Earth"
        }
    ],
    "orbital_data": {
        "orbit_id": "8",
        "orbit_determination_date": "2020-05-11 05:54:45",
        "first_observation_date": "2020-02-19",
        "last_observation_date": "2020-02-29",
        "data_arc_in_days": 10,
        "observations_used": 73,
        "orbit_uncertainty": "7",
        "minimum_orbit_intersection": ".00565207",
        "jupiter_tisserand_invariant": "4.035",
        "epoch_osculation": "2459000.5",
        "eccentricity": ".555339632687338",
        "semi_major_axis": "1.677460740561058",
        "inclination": "8.862983038218649",
        "ascending_node_longitude": "330.5092680051974",
        "orbital_period": "793.5548931723689",
        "perihelion_distance": ".74590030905045",
        "perihelion_argument": "106.0064916823912",
        "aphelion_distance": "2.609021172071666",
        "perihelion_time": "2458851.788945942000",
        "mean_anomaly": "67.46348604424965",
        "mean_motion": ".4536548171996516",
        "equinox": "J2000",
        "orbit_class": {
            "orbit_class_type": "APO",
            "orbit_class_description": "Near-Earth asteroid orbits which cross the Earth’s orbit similar to that of 1862 Apollo",
            "orbit_class_range": "a (semi-major axis) > 1.0 AU; q (perihelion) < 1.017 AU"
        }
    },
    "is_sentry_object": false
}